{
  "links" : {
    "next" : "https://api.nasa.gov/neo/rest/v1/feed?start_date=2015-12-23&end_date=2015-12-23&detailed=true&api_key=t0TVs3DtDT2H8Oy2Zy8m2eVrNsAVKAexjcZXUckd",
    "prev" : "https://api.nasa.gov/neo/rest/v1/feed?start_date=2015-12-21&end_date=2015-12-21&detailed=true&api_key=t0TVs3DtDT2H8Oy2Zy8m2eVrNsAVKAexjcZXUckd",
    "self" : "https://api.nasa.gov/neo/rest/v1/feed?start_date=2015-12-22&end_date=2015-12-22&detailed=true&api_key=t0TVs3DtDT2H8Oy2Zy8m2eVrNsAVKAexjcZXUckd"
  },
  "element_count" : 7,
  "near_earth_objects" : {
    "2015-12-22" : [ {
      "links" : {
        "self" : "https://api.nasa.gov/neo/rest/v1/neo/3738913?api_key=t0TVs3DtDT2H8Oy2Zy8m2eVrNsAVKAexjcZXUckd"
      },
      "neo_reference_id" : "3738913",
      "name" : "(2015 YC1)",
      "nasa_jpl_url" : "http://ssd.jpl.nasa.gov/sbdb.cgi?sstr=3738913",
      "absolute_magnitude_h" : 26.1,
      "estimated_diameter" : {
        "kilometers" : {
          "estimated_diameter_min" : 0.0160160338,
          "estimated_diameter_max" : 0.0358129403
        },
        "meters" : {
          "estimated_diameter_min" : 16.0160337979,
          "estimated_diameter_max" : 35.8129403019
        },
        "miles" : {
          "estimated_diameter_min" : 0.0099518989,
          "estimated_diameter_max" : 0.0222531225
        },
        "feet" : {
          "estimated_diameter_min" : 52.5460443254,
          "estimated_diameter_max" : 117.4965270602
        }
      },
      "is_potentially_hazardous_asteroid" : false,
      "close_approach_data" : [ {
        "close_approach_date" : "2015-12-22",
        "epoch_date_close_approach" : 1450771200000,
        "relative_velocity" : {
          "kilometers_per_second" : "8.0643204209",
          "kilometers_per_hour" : "29031.5535153965",
          "miles_per_hour" : "18039.0783496084"
        },
        "miss_distance" : {
          "astronomical" : "0.0100842829",
          "lunar" : "3.9227859974",
          "kilometers" : "1508587.25",
          "miles" : "937392.625"
        },
        "orbiting_body" : "Earth"
      } ],
      "orbital_data" : {
        "orbit_id" : "9",
        "orbit_determination_date" : "2017-06-22 17:42:02",
        "orbit_uncertainty" : "1",
        "minimum_orbit_intersection" : ".00296693",
        "jupiter_tisserand_invariant" : "5.677",
        "epoch_osculation" : "2458000.5",
        "eccentricity" : ".2559717720559598",
        "semi_major_axis" : "1.084002754546022",
        "inclination" : "6.657235645335766",
        "ascending_node_longitude" : "266.1747789569795",
        "orbital_period" : "412.234187120254",
        "perihelion_distance" : ".8065286485513355",
        "perihelion_argument" : "267.8902240039794",
        "aphelion_distance" : "1.361476860540709",
        "perihelion_time" : "2457854.918490993088",
        "mean_anomaly" : "127.1348783772751",
        "mean_motion" : ".8732900163250735",
        "equinox" : "J2000"
      }
    } ]
  }
}